{
  "type": "FeatureCollection",
  "name": "public_space",
  "features": [
    {
      "type": "Feature",
      "id": "PS-LM00",
      "properties": {
        "id": "PS-LM00",
        "layer": "PUBLIC_SPACE",
        "scenario_type": "ai_landmark",
        "label_zh": "元胞坊",
        "landmark_id": "CELLULAR-BLOCK",
        "official_boundary": false,
        "geometry_role": "design_proposal",
        "confidence": "low",
        "source_type": "agent_generated_design",
        "node_id": "N1",
        "node_name_zh": "元胞坊",
        "node_name_en": "Cellular Block",
        "task_area_zh": "众智园AI自主创新加速区",
        "task_area_en": "Zhongzhiyuan AI Autonomous Innovation Acceleration Area",
        "wing_interface_zh": "中关村科技服务翼",
        "wing_interface_en": "Zhongguancun Technology Service Wing",
        "spatial_type_zh": "混合研发街坊与共享试制单元",
        "spatial_type_en": "interlocked mixed-research block and shared prototype cells",
        "agent_refs": [
          "agent.1",
          "agent.2",
          "agent.3"
        ],
        "evidence_ids": [
          "DATA-SRC-AGENT-TASKBOOK-20260518",
          "A-TASKBOOK-001"
        ],
        "diagnosis_status_zh": "待验证设计假设/概念情景",
        "diagnosis_status_en": "verification-pending design assumption / concept scenario",
        "feature_role": "original_landmark_not_scenario_card"
      },
      "geometry": {
        "type": "Polygon",
        "coordinates": [
          [
            [
              116.3482689743136,
              40.01665744741711
            ],
            [
              116.3482672434922,
              40.01683938778861
            ],
            [
              116.34873103733509,
              40.01684199523838
            ],
            [
              116.34873276692498,
              40.01666005485017
            ],
            [
              116.3482689743136,
              40.01665744741711
            ]
          ]
        ]
      }
    },
    {
      "type": "Feature",
      "id": "PS-LM01",
      "properties": {
        "id": "PS-LM01",
        "layer": "PUBLIC_SPACE",
        "scenario_type": "ai_landmark",
        "label_zh": "智纹台",
        "landmark_id": "SMART-PATTERN-TERRACE",
        "official_boundary": false,
        "geometry_role": "design_proposal",
        "confidence": "low",
        "source_type": "agent_generated_design",
        "node_id": "N2",
        "node_name_zh": "智纹台",
        "node_name_en": "Smart-Pattern Terrace",
        "task_area_zh": "AI原点社区",
        "task_area_en": "AI Origin Community",
        "wing_interface_zh": "小月河场景赋能翼",
        "wing_interface_en": "Xiaoyuehe Scenario Empowerment Wing",
        "spatial_type_zh": "公共空间底盘与轻量数字层",
        "spatial_type_en": "public-space base with light digital layer",
        "agent_refs": [
          "agent.1",
          "agent.3",
          "agent.4",
          "agent.5"
        ],
        "evidence_ids": [
          "DATA-SRC-AGENT-TASKBOOK-20260518",
          "A-TASKBOOK-001"
        ],
        "diagnosis_status_zh": "待验证设计假设/概念情景",
        "diagnosis_status_en": "verification-pending design assumption / concept scenario",
        "feature_role": "original_landmark_not_scenario_card"
      },
      "geometry": {
        "type": "Polygon",
        "coordinates": [
          [
            [
              116.34726906438364,
              39.98840773532251
            ],
            [
              116.34726733263892,
              39.98858967654732
            ],
            [
              116.34773093528612,
              39.988592286478045
            ],
            [
              116.34773266580109,
              39.98841034523651
            ],
            [
              116.34726906438364,
              39.98840773532251
            ]
          ]
        ]
      }
    },
    {
      "type": "Feature",
      "id": "PS-LM02",
      "properties": {
        "id": "PS-LM02",
        "layer": "PUBLIC_SPACE",
        "scenario_type": "ai_landmark",
        "label_zh": "生长庭",
        "landmark_id": "GROWING-COURT",
        "official_boundary": false,
        "geometry_role": "design_proposal",
        "confidence": "low",
        "source_type": "agent_generated_design",
        "node_id": "N3",
        "node_name_zh": "生长庭",
        "node_name_en": "Growing Court",
        "task_area_zh": "大钟寺AI产业集聚区",
        "task_area_en": "Dazhongsi AI Industry Cluster",
        "wing_interface_zh": "中关村科技服务翼 ↔ 小月河场景赋能翼",
        "wing_interface_en": "Zhongguancun Technology Service Wing ↔ Xiaoyuehe Scenario Empowerment Wing",
        "spatial_type_zh": "存量基座与可逆模块",
        "spatial_type_en": "existing base with reversible modules",
        "agent_refs": [
          "agent.1",
          "agent.2",
          "agent.4",
          "agent.6"
        ],
        "evidence_ids": [
          "DATA-SRC-AGENT-TASKBOOK-20260518",
          "A-TASKBOOK-001"
        ],
        "diagnosis_status_zh": "待验证设计假设/概念情景",
        "diagnosis_status_en": "verification-pending design assumption / concept scenario",
        "feature_role": "original_landmark_not_scenario_card"
      },
      "geometry": {
        "type": "Polygon",
        "coordinates": [
          [
            [
              116.34826919933026,
              39.94682786821142
            ],
            [
              116.34826747278167,
              39.94700981078146
            ],
            [
              116.34873079473404,
              39.947012414475836
            ],
            [
              116.34873252005538,
              39.9468304718891
            ],
            [
              116.34826919933026,
              39.94682786821142
            ]
          ]
        ]
      }
    },
    {
      "type": "Feature",
      "id": "PS-SN00",
      "properties": {
        "id": "PS-SN00",
        "layer": "PUBLIC_SPACE",
        "scenario_type": "scenario_node",
        "label_zh": "AI场景节点",
        "official_boundary": false,
        "geometry_role": "design_proposal",
        "confidence": "low",
        "source_type": "agent_generated_design",
        "feature_role": "relational_scenario_location_not_independent_card",
        "scenario_card_count": 10,
        "common_test_protocol_count": 3,
        "mapping_count": 18,
        "diagnosis_status_zh": "待验证设计假设/概念情景",
        "diagnosis_status_en": "verification-pending design assumption / concept scenario"
      },
      "geometry": {
        "type": "Polygon",
        "coordinates": [
          [
            [
              116.34725585608051,
              40.00469979813456
            ],
            [
              116.34725070994484,
              40.00524013446282
            ],
            [
              116.34795334467769,
              40.00524408983991
            ],
            [
              116.34795848527489,
              40.00470375343639
            ],
            [
              116.34725585608051,
              40.00469979813456
            ]
          ]
        ]
      }
    },
    {
      "type": "Feature",
      "id": "PS-SN01",
      "properties": {
        "id": "PS-SN01",
        "layer": "PUBLIC_SPACE",
        "scenario_type": "scenario_node",
        "label_zh": "AI场景节点",
        "official_boundary": false,
        "geometry_role": "design_proposal",
        "confidence": "low",
        "source_type": "agent_generated_design",
        "feature_role": "relational_scenario_location_not_independent_card",
        "scenario_card_count": 10,
        "common_test_protocol_count": 3,
        "mapping_count": 18,
        "diagnosis_status_zh": "待验证设计假设/概念情景",
        "diagnosis_status_en": "verification-pending design assumption / concept scenario"
      },
      "geometry": {
        "type": "Polygon",
        "coordinates": [
          [
            [
              116.34748269949533,
              39.99295082703987
            ],
            [
              116.34747541465836,
              39.99371630508088
            ],
            [
              116.34847064663688,
              39.993721904014386
            ],
            [
              116.34847792036494,
              39.992956425822456
            ],
            [
              116.34748269949533,
              39.99295082703987
            ]
          ]
        ]
      }
    },
    {
      "type": "Feature",
      "id": "PS-SN02",
      "properties": {
        "id": "PS-SN02",
        "layer": "PUBLIC_SPACE",
        "scenario_type": "scenario_node",
        "label_zh": "AI场景节点",
        "official_boundary": false,
        "geometry_role": "design_proposal",
        "confidence": "low",
        "source_type": "agent_generated_design",
        "feature_role": "relational_scenario_location_not_independent_card",
        "scenario_card_count": 10,
        "common_test_protocol_count": 3,
        "mapping_count": 18,
        "diagnosis_status_zh": "待验证设计假设/概念情景",
        "diagnosis_status_en": "verification-pending design assumption / concept scenario"
      },
      "geometry": {
        "type": "Polygon",
        "coordinates": [
          [
            [
              116.3476614158697,
              39.981201025056606
            ],
            [
              116.34765199488085,
              39.982191645727944
            ],
            [
              116.34893972583369,
              39.9821988860973
            ],
            [
              116.34894912822875,
              39.981208265173365
            ],
            [
              116.3476614158697,
              39.981201025056606
            ]
          ]
        ]
      }
    },
    {
      "type": "Feature",
      "id": "PS-SN03",
      "properties": {
        "id": "PS-SN03",
        "layer": "PUBLIC_SPACE",
        "scenario_type": "scenario_node",
        "label_zh": "AI场景节点",
        "official_boundary": false,
        "geometry_role": "design_proposal",
        "confidence": "low",
        "source_type": "agent_generated_design",
        "feature_role": "relational_scenario_location_not_independent_card",
        "scenario_card_count": 10,
        "common_test_protocol_count": 3,
        "mapping_count": 18,
        "diagnosis_status_zh": "待验证设计假设/概念情景",
        "diagnosis_status_en": "verification-pending design assumption / concept scenario"
      },
      "geometry": {
        "type": "Polygon",
        "coordinates": [
          [
            [
              116.34823998063582,
              39.969790779101814
            ],
            [
              116.34823484860273,
              39.97033111880019
            ],
            [
              116.34893712591627,
              39.970335065367905
            ],
            [
              116.34894225242053,
              39.969794725594404
            ],
            [
              116.34823998063582,
              39.969790779101814
            ]
          ]
        ]
      }
    },
    {
      "type": "Feature",
      "id": "PS-SN04",
      "properties": {
        "id": "PS-SN04",
        "layer": "PUBLIC_SPACE",
        "scenario_type": "scenario_node",
        "label_zh": "AI场景节点",
        "official_boundary": false,
        "geometry_role": "design_proposal",
        "confidence": "low",
        "source_type": "agent_generated_design",
        "feature_role": "relational_scenario_location_not_independent_card",
        "scenario_card_count": 10,
        "common_test_protocol_count": 3,
        "mapping_count": 18,
        "diagnosis_status_zh": "待验证设计假设/概念情景",
        "diagnosis_status_en": "verification-pending design assumption / concept scenario"
      },
      "geometry": {
        "type": "Polygon",
        "coordinates": [
          [
            [
              116.3483826859043,
              39.95804032737105
            ],
            [
              116.34837542009757,
              39.95880581017343
            ],
            [
              116.34937014598638,
              39.95881139735294
            ],
            [
              116.34937740070352,
              39.958045914399925
            ],
            [
              116.3483826859043,
              39.95804032737105
            ]
          ]
        ]
      }
    }
  ]
}
