{
 "type": "FeatureCollection",
 "name": "green_space",
 "features": [
  {
   "type": "Feature",
   "id": "GS-000",
   "properties": {
    "id": "GS-000",
    "layer": "GREEN_SPACE",
    "land_use_code": "1401",
    "label_zh": "概念绿地",
    "official_boundary": false,
    "geometry_role": "design_proposal",
    "confidence": "low",
    "source_type": "agent_generated_design"
   },
   "geometry": {
    "type": "Polygon",
    "coordinates": [
     [
      [
       116.34883753118606,
       39.9885223747927
      ],
      [
       116.34984029931515,
       39.94797134484132
      ],
      [
       116.34847119406216,
       39.94795129537733
      ],
      [
       116.34746760262911,
       39.98850084644712
      ],
      [
       116.34658657120696,
       40.01603973244408
      ],
      [
       116.34795695482491,
       40.01606565465336
      ],
      [
       116.34883744843222,
       39.98852529367548
      ],
      [
       116.34883753118606,
       39.9885223747927
      ]
     ]
    ]
   }
  },
  {
   "type": "Feature",
   "id": "GS-001",
   "properties": {
    "id": "GS-001",
    "layer": "GREEN_SPACE",
    "land_use_code": "1401",
    "label_zh": "概念绿地",
    "official_boundary": false,
    "geometry_role": "design_proposal",
    "confidence": "low",
    "source_type": "agent_generated_design"
   },
   "geometry": {
    "type": "Polygon",
    "coordinates": [
     [
      [
       116.34120569869233,
       39.954698544165204
      ],
      [
       116.34118799789972,
       39.95654294636753
      ],
      [
       116.34461182303501,
       39.956562353499265
      ],
      [
       116.34462942608863,
       39.95471794995697
      ],
      [
       116.34120569869233,
       39.954698544165204
      ]
     ]
    ]
   }
  },
  {
   "type": "Feature",
   "id": "GS-002",
   "properties": {
    "id": "GS-002",
    "layer": "GREEN_SPACE",
    "land_use_code": "1401",
    "label_zh": "概念绿地",
    "official_boundary": false,
    "geometry_role": "design_proposal",
    "confidence": "low",
    "source_type": "agent_generated_design"
   },
   "geometry": {
    "type": "Polygon",
    "coordinates": [
     [
      [
       116.34395640472155,
       39.983277227940135
      ],
      [
       116.34393170000831,
       39.98585937949162
      ],
      [
       116.3487271085968,
       39.98588642406862
      ],
      [
       116.34875162146409,
       39.983304269903336
      ],
      [
       116.34395640472155,
       39.983277227940135
      ]
     ]
    ]
   }
  },
  {
   "type": "Feature",
   "id": "GS-003",
   "properties": {
    "id": "GS-003",
    "layer": "GREEN_SPACE",
    "land_use_code": "1401",
    "label_zh": "概念绿地",
    "official_boundary": false,
    "geometry_role": "design_proposal",
    "confidence": "low",
    "source_type": "agent_generated_design"
   },
   "geometry": {
    "type": "Polygon",
    "coordinates": [
     [
      [
       116.34722896212483,
       39.95727013921129
      ],
      [
       116.34719738374224,
       39.960590065217964
      ],
      [
       116.35336064621387,
       39.96062460873278
      ],
      [
       116.35339190786765,
       39.95730467843296
      ],
      [
       116.34722896212483,
       39.95727013921129
      ]
     ]
    ]
   }
  },
  {
   "type": "Feature",
   "id": "GS-004",
   "properties": {
    "id": "GS-004",
    "layer": "GREEN_SPACE",
    "land_use_code": "1401",
    "label_zh": "概念绿地",
    "official_boundary": false,
    "geometry_role": "design_proposal",
    "confidence": "low",
    "source_type": "agent_generated_design"
   },
   "geometry": {
    "type": "Polygon",
    "coordinates": [
     [
      [
       116.34199946164549,
       39.98691034494734
      ],
      [
       116.34198176200641,
       39.98875473716377
      ],
      [
       116.3454071953092,
       39.98877413372534
      ],
      [
       116.34542479705195,
       39.98692974016992
      ],
      [
       116.34199946164549,
       39.98691034494734
      ]
     ]
    ]
   }
  },
  {
   "type": "Feature",
   "id": "GS-005",
   "properties": {
    "id": "GS-005",
    "layer": "GREEN_SPACE",
    "land_use_code": "1401",
    "label_zh": "概念绿地",
    "official_boundary": false,
    "geometry_role": "design_proposal",
    "confidence": "low",
    "source_type": "agent_generated_design"
   },
   "geometry": {
    "type": "Polygon",
    "coordinates": [
     [
      [
       116.34527295147659,
       39.960903335528876
      ],
      [
       116.3452483158455,
       39.9634854977577
      ],
      [
       116.3500421622417,
       39.96351247543198
      ],
      [
       116.35006660624063,
       39.96093031059545
      ],
      [
       116.34527295147659,
       39.960903335528876
      ]
     ]
    ]
   }
  }
 ]
}