{
 "type": "FeatureCollection",
 "name": "public_space",
 "features": [
  {
   "type": "Feature",
   "id": "PS-LM00",
   "properties": {
    "id": "PS-LM00",
    "layer": "PUBLIC_SPACE",
    "scenario_type": "ai_landmark",
    "label_zh": "京张论坛广场",
    "landmark_id": "JINGZHANG-FORUM-PLAZA",
    "official_boundary": false,
    "geometry_role": "design_proposal",
    "confidence": "low",
    "source_type": "agent_generated_design"
   },
   "geometry": {
    "type": "Polygon",
    "coordinates": [
     [
      [
       116.34822465448168,
       40.01663974606018
      ],
      [
       116.34822259162847,
       40.01685658893196
      ],
      [
       116.34877535728448,
       40.016859696581434
      ],
      [
       116.34877741866998,
       40.01664285368971
      ],
      [
       116.34822465448168,
       40.01663974606018
      ]
     ]
    ]
   }
  },
  {
   "type": "Feature",
   "id": "PS-LM01",
   "properties": {
    "id": "PS-LM01",
    "layer": "PUBLIC_SPACE",
    "scenario_type": "ai_landmark",
    "label_zh": "代码坞",
    "landmark_id": "CODE-DOCK",
    "official_boundary": false,
    "geometry_role": "design_proposal",
    "confidence": "low",
    "source_type": "agent_generated_design"
   },
   "geometry": {
    "type": "Polygon",
    "coordinates": [
     [
      [
       116.34722476297917,
       39.98839003364579
      ],
      [
       116.34722269902548,
       39.98860687753459
      ],
      [
       116.34777523680789,
       39.98860998814094
      ],
      [
       116.3477772992959,
       39.9883931442322
      ],
      [
       116.34722476297917,
       39.98839003364579
      ]
     ]
    ]
   }
  },
  {
   "type": "Feature",
   "id": "PS-LM02",
   "properties": {
    "id": "PS-LM02",
    "layer": "PUBLIC_SPACE",
    "scenario_type": "ai_landmark",
    "label_zh": "回路长廊",
    "landmark_id": "LOOP-GALLERY",
    "official_boundary": false,
    "geometry_role": "design_proposal",
    "confidence": "low",
    "source_type": "agent_generated_design"
   },
   "geometry": {
    "type": "Polygon",
    "coordinates": [
     [
      [
       116.3482249243508,
       39.946810167003875
      ],
      [
       116.34822286659004,
       39.94702701249597
      ],
      [
       116.34877506983054,
       39.94703011566962
      ],
      [
       116.3487771261286,
       39.946813270157634
      ],
      [
       116.3482249243508,
       39.946810167003875
      ]
     ]
    ]
   }
  },
  {
   "type": "Feature",
   "id": "PS-SN00",
   "properties": {
    "id": "PS-SN00",
    "layer": "PUBLIC_SPACE",
    "scenario_type": "scenario_node",
    "label_zh": "AI场景节点",
    "official_boundary": false,
    "geometry_role": "design_proposal",
    "confidence": "low",
    "source_type": "agent_generated_design"
   },
   "geometry": {
    "type": "Polygon",
    "coordinates": [
     [
      [
       116.3471889550425,
       40.00464759101659
      ],
      [
       116.34718282169877,
       40.00529158267269
      ],
      [
       116.34802024624638,
       40.00529629682888
      ],
      [
       116.34802637298917,
       40.00465230508306
      ],
      [
       116.3471889550425,
       40.00464759101659
      ]
     ]
    ]
   }
  },
  {
   "type": "Feature",
   "id": "PS-SN01",
   "properties": {
    "id": "PS-SN01",
    "layer": "PUBLIC_SPACE",
    "scenario_type": "scenario_node",
    "label_zh": "AI场景节点",
    "official_boundary": false,
    "geometry_role": "design_proposal",
    "confidence": "low",
    "source_type": "agent_generated_design"
   },
   "geometry": {
    "type": "Polygon",
    "coordinates": [
     [
      [
       116.34738793869138,
       39.99287686720019
      ],
      [
       116.34737925636897,
       39.993789190591336
      ],
      [
       116.34856540850524,
       39.993795863595295
      ],
      [
       116.34857407758767,
       39.99288354002428
      ],
      [
       116.34738793869138,
       39.99287686720019
      ]
     ]
    ]
   }
  },
  {
   "type": "Feature",
   "id": "PS-SN02",
   "properties": {
    "id": "PS-SN02",
    "layer": "PUBLIC_SPACE",
    "scenario_type": "scenario_node",
    "label_zh": "AI场景节点",
    "official_boundary": false,
    "geometry_role": "design_proposal",
    "confidence": "low",
    "source_type": "agent_generated_design"
   },
   "geometry": {
    "type": "Polygon",
    "coordinates": [
     [
      [
       116.347538804573,
       39.9811053125883
      ],
      [
       116.34752757631038,
       39.98228596880806
      ],
      [
       116.34906233891206,
       39.98229459813244
      ],
      [
       116.34907354501398,
       39.98111394161164
      ],
      [
       116.347538804573,
       39.9811053125883
      ]
     ]
    ]
   }
  },
  {
   "type": "Feature",
   "id": "PS-SN03",
   "properties": {
    "id": "PS-SN03",
    "layer": "PUBLIC_SPACE",
    "scenario_type": "scenario_node",
    "label_zh": "AI场景节点",
    "official_boundary": false,
    "geometry_role": "design_proposal",
    "confidence": "low",
    "source_type": "agent_generated_design"
   },
   "geometry": {
    "type": "Polygon",
    "coordinates": [
     [
      [
       116.3481731125274,
       39.96973857250565
      ],
      [
       116.34816699599163,
       39.9703825681784
      ],
      [
       116.34900399455442,
       39.97038727183526
      ],
      [
       116.34901010450075,
       39.96974327607299
      ],
      [
       116.3481731125274,
       39.96973857250565
      ]
     ]
    ]
   }
  },
  {
   "type": "Feature",
   "id": "PS-SN04",
   "properties": {
    "id": "PS-SN04",
    "layer": "PUBLIC_SPACE",
    "scenario_type": "scenario_node",
    "label_zh": "AI场景节点",
    "official_boundary": false,
    "geometry_role": "design_proposal",
    "confidence": "low",
    "source_type": "agent_generated_design"
   },
   "geometry": {
    "type": "Polygon",
    "coordinates": [
     [
      [
       116.34828797181694,
       39.957966368202264
      ],
      [
       116.34827931217542,
       39.958878697268176
      ],
      [
       116.34946486113633,
       39.95888535626332
      ],
      [
       116.3494735075609,
       39.95797302701788
      ],
      [
       116.34828797181694,
       39.957966368202264
      ]
     ]
    ]
   }
  }
 ]
}